$$SOE
2460147.500000000, A.D. 2023-Jul-22 00:00:00.0000, -2.510932420892629E+08, -2.426068709860596E+08, 1.131264725575931E+07,
2460154.500000000, A.D. 2023-Jul-29 00:00:00.0000, -2.416030520837078E+08, -2.498715979618677E+08, 1.158585574077278E+07,
2460161.500000000, A.D. 2023-Aug-05 00:00:00.0000, -2.318341032518404E+08, -2.568479377596162E+08, 1.184569359274046E+07,
2460168.500000000, A.D. 2023-Aug-12 00:00:00.0000, -2.217940368608489E+08, -2.635238118928334E+08, 1.209167528274834E+07,
2460175.500000000, A.D. 2023-Aug-19 00:00:00.0000, -2.114910727996908E+08, -2.698872216323857E+08, 1.232332086216003E+07,
2460182.500000000, A.D. 2023-Aug-26 00:00:00.0000, -2.009340229313961E+08, -2.759262769261651E+08, 1.254015725707561E+07,
2460189.500000000, A.D. 2023-Sep-02 00:00:00.0000, -1.901323032145214E+08, -2.816292273760209E+08, 1.274171963778837E+07,
2460196.500000000, A.D. 2023-Sep-09 00:00:00.0000, -1.790959443473458E+08, -2.869844953104468E+08, 1.292755285581155E+07,
2460203.500000000, A.D. 2023-Sep-16 00:00:00.0000, -1.678356005448655E+08, -2.919807109880667E+08, 1.309721292666270E+07,
2460210.500000000, A.D. 2023-Sep-23 00:00:00.0000, -1.563625558006744E+08, -2.966067496002297E+08, 1.325026854099824E+07,
2460217.500000000, A.D. 2023-Sep-30 00:00:00.0000, -1.446887277338288E+08, -3.008517688121988E+08, 1.338630272881296E+07,
2460224.500000000, A.D. 2023-Oct-07 00:00:00.0000, -1.328266711281846E+08, -3.047052472880449E+08, 1.350491484311752E+07,
2460231.500000000, A.D. 2023-Oct-14 00:00:00.0000, -1.207895798741123E+08, -3.081570273875111E+08, 1.360572249042718E+07,
2460238.500000000, A.D. 2023-Oct-21 00:00:00.0000, -1.085912838359233E+08, -3.111973602800402E+08, 1.368836323550734E+07,
2460245.500000000, A.D. 2023-Oct-28 00:00:00.0000, -9.624624182668184E+07, -3.138169510306011E+08, 1.375249638739659E+07,
2460252.500000000, A.D. 2023-Nov-04 00:00:00.0000, -8.376953170507315E+07, -3.160070042063027E+08, 1.379780490863717E+07,
2460259.500000000, A.D. 2023-Nov-11 00:00:00.0000, -7.117683719321874E+07, -3.177592703461481E+08, 1.382399737101515E+07,
2460266.500000000, A.D. 2023-Nov-18 00:00:00.0000, -5.848443098847768E+07, -3.190660930644476E+08, 1.383080991918670E+07,
2460273.500000000, A.D. 2023-Nov-25 00:00:00.0000, -4.570915390932950E+07, -3.199204564375313E+08, 1.381800822235046E+07,
2460280.500000000, A.D. 2023-Dec-02 00:00:00.0000, -3.286838988738755E+07, -3.203160323266241E+08, 1.378538939441150E+07,
2460287.500000000, A.D. 2023-Dec-09 00:00:00.0000, -1.998003660286704E+07, -3.202472273075695E+08, 1.373278385397926E+07,
2460294.500000000, A.D. 2023-Dec-16 00:00:00.0000, -7.062471390913118E+06, -3.197092287767802E+08, 1.366005708115317E+07,
2460301.500000000, A.D. 2023-Dec-23 00:00:00.0000, 5.865487970990960E+06, -3.186980491013757E+08, 1.356711127641831E+07,
2460308.500000000, A.D. 2023-Dec-30 00:00:00.0000, 1.878462624700656E+07, -3.172105662975967E+08, 1.345388711039203E+07,
2460315.500000000, A.D. 2024-Jan-06 00:00:00.0000, 3.167537566612617E+07, -3.152445631141730E+08, 1.332036551316339E+07,
2460322.500000000, A.D. 2024-Jan-13 00:00:00.0000, 4.451786584231559E+07, -3.127987658366305E+08, 1.316656904339597E+07,
2460329.500000000, A.D. 2024-Jan-20 00:00:00.0000, 5.729197973952544E+07, -3.098728792406635E+08, 1.299256295674509E+07,
2460336.500000000, A.D. 2024-Jan-27 00:00:00.0000, 6.997741341339354E+07, -3.064676165624331E+08, 1.279845619349352E+07,
2460343.500000000, A.D. 2024-Feb-03 00:00:00.0000, 8.255373879877548E+07, -3.025847249689895E+08, 1.258440222851384E+07,
2460350.500000000, A.D. 2024-Feb-10 00:00:00.0000, 9.500046945570335E+07, -2.982270063799585E+08, 1.235059971705316E+07,
2460357.500000000, A.D. 2024-Feb-17 00:00:00.0000, 1.072971289863124E+08, -2.933983332277279E+08, 1.209729290880243E+07,
2460364.500000000, A.D. 2024-Feb-24 00:00:00.0000, 1.194233216737652E+08, -2.881036587795536E+08, 1.182477181456295E+07,
2460371.500000000, A.D. 2024-Mar-02 00:00:00.0000, 1.313588048344092E+08, -2.823490217435155E+08, 1.153337210868143E+07,
2460378.500000000, A.D. 2024-Mar-09 00:00:00.0000, 1.430835624367934E+08, -2.761415449711986E+08, 1.122347474080564E+07,
2460385.500000000, A.D. 2024-Mar-16 00:00:00.0000, 1.545778797564425E+08, -2.694894278759566E+08, 1.089550523113903E+07,
2460392.500000000, A.D. 2024-Mar-23 00:00:00.0000, 1.658224183075195E+08, -2.624019313415754E+08, 1.054993274566437E+07,
2460399.500000000, A.D. 2024-Mar-30 00:00:00.0000, 1.767982881439706E+08, -2.548893551069173E+08, 1.018726915371907E+07,
2460406.500000000, A.D. 2024-Apr-06 00:00:00.0000, 1.874871171218940E+08, -2.469630110401544E+08, 9.808067772955939E+06,
2460413.500000000, A.D. 2024-Apr-13 00:00:00.0000, 1.978711200179308E+08, -2.386351916088587E+08, 9.412921554154590E+06,
2460420.500000000, A.D. 2024-Apr-20 00:00:00.0000, 2.079331659058106E+08, -2.299191311044042E+08, 9.002461026680410E+06,
2460427.500000000, A.D. 2024-Apr-27 00:00:00.0000, 2.176568416481083E+08, -2.208289604942023E+08, 8.577352114983514E+06,
2460434.500000000, A.D. 2024-May-04 00:00:00.0000, 2.270265110018799E+08, -2.113796569854308E+08, 8.138293779359087E+06,
2460441.500000000, A.D. 2024-May-11 00:00:00.0000, 2.360273690390540E+08, -2.015869888477163E+08, 7.686015471666232E+06,
2460448.500000000, A.D. 2024-May-18 00:00:00.0000, 2.446454914881630E+08, -1.914674559802623E+08, 7.221274423530452E+06,
2460455.500000000, A.D. 2024-May-25 00:00:00.0000, 2.528678786152567E+08, -1.810382267917204E+08, 6.744852789542481E+06,
2460462.500000000, A.D. 2024-Jun-01 00:00:00.0000, 2.606824933693726E+08, -1.703170720538689E+08, 6.257554661831893E+06,
2460469.500000000, A.D. 2024-Jun-08 00:00:00.0000, 2.680782937827209E+08, -1.593222963836951E+08, 5.760202958856031E+06,
2460476.500000000, A.D. 2024-Jun-15 00:00:00.0000, 2.750452598569638E+08, -1.480726674597784E+08, 5.253636225297585E+06,
2460483.500000000, A.D. 2024-Jun-22 00:00:00.0000, 2.815744138502907E+08, -1.365873424647552E+08, 4.738705561627895E+06,
2460490.500000000, A.D. 2024-Jun-29 00:00:00.0000, 2.876578318388489E+08, -1.248857942414916E+08, 4.216271757926702E+06,
2460497.500000000, A.D. 2024-Jul-06 00:00:00.0000, 2.932886492640044E+08, -1.129877402786430E+08, 3.687202213832058E+06,
2460504.500000000, A.D. 2024-Jul-13 00:00:00.0000, 2.984610625590718E+08, -1.009130723172046E+08, 3.152367722165540E+06,
2460511.500000000, A.D. 2024-Jul-20 00:00:00.0000, 3.031703250878294E+08, -8.868178601404929E+07, 2.612639416760840E+06,
2460518.500000000, A.D. 2024-Jul-27 00:00:00.0000, 3.074127370182463E+08, -7.631391216589612E+07, 2.068885888615221E+06,
2460525.500000000, A.D. 2024-Aug-03 00:00:00.0000, 3.111856297364874E+08, -6.382945036306469E+07, 1.521970434497658E+06,
2460532.500000000, A.D. 2024-Aug-10 00:00:00.0000, 3.144873453442535E+08, -5.124830551698810E+07, 9.727484396459796E+05,
2460539.500000000, A.D. 2024-Aug-17 00:00:00.0000, 3.173172117009961E+08, -3.859022762106200E+07, 4.220649065496977E+05,
2460546.500000000, A.D. 2024-Aug-24 00:00:00.0000, 3.196755134814060E+08, -2.587475508869074E+07, -1.292478626943082E+05,
2460553.500000000, A.D. 2024-Aug-31 00:00:00.0000, 3.215634598247675E+08, -1.312116199264654E+07, -6.803724371321751E+05,
2460560.500000000, A.D. 2024-Sep-07 00:00:00.0000, 3.229831494078199E+08, -3.484092832524340E+05, -1.230508298242736E+06,
2460567.500000000, A.D. 2024-Sep-14 00:00:00.0000, 3.239375334899930E+08, 1.242490086979802E+07, -1.778873674615259E+06,
2460574.500000000, A.D. 2024-Sep-21 00:00:00.0000, 3.244303753702604E+08, 2.518056794228879E+07, -2.324706947494175E+06,
2460581.500000000, A.D. 2024-Sep-28 00:00:00.0000, 3.244662062273074E+08, 3.790082986002082E+07, -2.867267846334590E+06,
2460588.500000000, A.D. 2024-Oct-05 00:00:00.0000, 3.240502814388151E+08, 5.056839375407115E+07, -3.405838774007460E+06,
2460595.500000000, A.D. 2024-Oct-12 00:00:00.0000, 3.231885374212794E+08, 6.316646370927767E+07, -3.939725989103761E+06,
2460602.500000000, A.D. 2024-Oct-19 00:00:00.0000, 3.218875476243443E+08, 7.567876533898018E+07, -4.468260511933867E+06,
2460609.500000000, A.D. 2024-Oct-26 00:00:00.0000, 3.201544780087560E+08, 8.808956652090143E+07, -4.990798823366381E+06,
2460616.500000000, A.D. 2024-Nov-02 00:00:00.0000, 3.179970425983363E+08, 1.003836943082576E+08, -5.506723400247406E+06,
2460623.500000000, A.D. 2024-Nov-09 00:00:00.0000, 3.154234595037411E+08, 1.125465482200001E+08, -6.015443103605226E+06,
2460630.500000000, A.D. 2024-Nov-16 00:00:00.0000, 3.124424077109589E+08, 1.245641101103130E+08, -6.516393431690030E+06,
2460637.500000000, A.D. 2024-Nov-23 00:00:00.0000, 3.090629849144873E+08, 1.364229507807956E+08, -7.009036656306304E+06,
2460644.500000000, A.D. 2024-Nov-30 00:00:00.0000, 3.052946668045634E+08, 1.481102335152404E+08, -7.492861875443198E+06,
2460651.500000000, A.D. 2024-Dec-07 00:00:00.0000, 3.011472683969650E+08, 1.596137151821100E+08, -7.967384997236662E+06,
2460658.500000000, A.D. 2024-Dec-14 00:00:00.0000, 2.966309068477231E+08, 1.709217463515698E+08, -8.432148502803810E+06,
2460665.500000000, A.D. 2024-Dec-21 00:00:00.0000, 2.917559635357516E+08, 1.820232694151630E+08, -8.886720886087231E+06,
2460672.500000000, A.D. 2024-Dec-28 00:00:00.0000, 2.865330474707724E+08, 1.929078119659255E+08, -9.330696203940421E+06,
2460679.500000000, A.D. 2025-Jan-04 00:00:00.0000, 2.809729626757838E+08, 2.035654780292504E+08, -9.763693790228978E+06,
2460686.500000000, A.D. 2025-Jan-11 00:00:00.0000, 2.750866777504765E+08, 2.139869390200272E+08, -1.018535783931591E+07,
2460693.500000000, A.D. 2025-Jan-18 00:00:00.0000, 2.688852967187699E+08, 2.241634237193464E+08, -1.059535685752609E+07,
2460700.500000000, A.D. 2025-Jan-25 00:00:00.0000, 2.623800314138991E+08, 2.340867069939574E+08, -1.099338305157271E+07,
2460707.500000000, A.D. 2025-Feb-01 00:00:00.0000, 2.555821755843771E+08, 2.437490974089925E+08, -1.137915168158667E+07,
2460714.500000000, A.D. 2025-Feb-08 00:00:00.0000, 2.485030807556797E+08, 2.531434239194227E+08, -1.175240038978393E+07,
$$EOE